{
"type": "FeatureCollection",
"name": "border_pk_in",
"crs": { "type": "name", "properties": { "name": "urn:ogc:def:crs:OGC:1.3:CRS84" } },
"features": [
{ "type": "Feature", "properties": { "name": "Pakistan-India border" }, "geometry": { "type": "LineString", "coordinates": [ [ 77.0, 34.977451120307869 ], [ 76.952569525695253, 34.94735223047222 ], [ 76.93456934569349, 34.928777880503503 ], [ 76.920169201692033, 34.920334994154089 ], [ 76.905769057690577, 34.923712148693852 ], [ 76.880568805688085, 34.937220766852917 ], [ 76.851768517685173, 34.943975075932457 ], [ 76.815768157681589, 34.94059792139268 ], [ 76.783367833678369, 34.930466457773392 ], [ 76.758167581675821, 34.915269262344438 ], [ 76.750967509675093, 34.891629180566085 ], [ 76.754567545675457, 34.837594707929838 ], [ 76.743767437674364, 34.819020357961136 ], [ 76.653766537665376, 34.746411535356174 ], [ 76.63936639366392, 34.741345803546523 ], [ 76.552965529655296, 34.726148608117583 ], [ 76.534965349653532, 34.726148608117583 ], [ 76.520565205652076, 34.731214339927234 ], [ 76.477364773647764, 34.75823157624535 ], [ 76.437764377643759, 34.763297308055002 ], [ 76.398163981639811, 34.751477267165825 ], [ 76.261362613626147, 34.683934176370514 ], [ 76.153361533615339, 34.661982671862035 ], [ 76.120961209612119, 34.66029409459216 ], [ 76.059760597605987, 34.683934176370514 ], [ 76.023760237602403, 34.677179867290988 ], [ 76.005760057600583, 34.665359826401811 ], [ 75.987759877598791, 34.636654012813793 ], [ 75.973359733597334, 34.623145394654742 ], [ 75.966159661596635, 34.619768240114979 ], [ 75.940959409594115, 34.611325353765565 ], [ 75.872558725587254, 34.57079949928837 ], [ 75.814958149581514, 34.521830758461775 ], [ 75.796957969579694, 34.50832214030271 ], [ 75.775357753577538, 34.503256408493073 ], [ 75.73575735757359, 34.50832214030271 ], [ 75.714157141571434, 34.50832214030271 ], [ 75.656556565565666, 34.496502099413533 ], [ 75.613356133561354, 34.498190676683421 ], [ 75.346953469534697, 34.557290881129319 ], [ 75.307353073530749, 34.574176653828147 ], [ 75.267752677526772, 34.5978167356065 ], [ 75.24975249752498, 34.613013931035439 ], [ 75.235352353523552, 34.631588281004156 ], [ 75.22455224552246, 34.638342590083681 ], [ 75.213752137521396, 34.645096899163207 ], [ 75.177751777517784, 34.645096899163207 ], [ 75.109351093510952, 34.63327685827403 ], [ 75.019350193501936, 34.629899703734267 ], [ 74.666546665466655, 34.688999908180165 ], [ 74.41094410944109, 34.76498588532489 ], [ 74.349743497434986, 34.773428771674304 ], [ 74.284942849428489, 34.768363039864653 ], [ 74.220142201422021, 34.748100112626062 ], [ 74.148141481414825, 34.70250852633923 ], [ 74.119341193411941, 34.690688485450039 ], [ 73.960939609396092, 34.668736980941574 ], [ 73.950139501395029, 34.661982671862035 ], [ 73.91773917739178, 34.641719744623444 ], [ 73.91773917739178, 34.619768240114979 ], [ 73.924939249392509, 34.592751003796849 ], [ 73.924939249392509, 34.565733767478733 ], [ 73.910539105391052, 34.545470840240128 ], [ 73.863738637386376, 34.516765026652124 ], [ 73.845738457384584, 34.494813522143659 ], [ 73.845738457384584, 34.455976244936352 ], [ 73.84213842138422, 34.444156204047175 ], [ 73.831338313383156, 34.435713317697761 ], [ 73.806138061380636, 34.425581854078459 ], [ 73.795337953379544, 34.418827544998933 ], [ 73.780937809378116, 34.396876040490454 ], [ 73.773737737377388, 34.371547381442213 ], [ 73.780937809378116, 34.346218722393971 ], [ 73.802538025380272, 34.327644372425269 ], [ 73.827738277382792, 34.315824331536092 ], [ 73.852938529385312, 34.307381445186678 ], [ 73.878138781387833, 34.304004290646901 ], [ 73.906939069390717, 34.307381445186678 ], [ 73.939339393393936, 34.304004290646901 ], [ 73.953739537395393, 34.287118517948088 ], [ 73.975339753397549, 34.238149777121478 ], [ 73.989739897398977, 34.217886849882888 ], [ 73.996939969399705, 34.197623922644297 ], [ 73.996939969399705, 34.175672418135818 ], [ 73.975339753397549, 34.162163799976767 ], [ 73.91773917739178, 34.135146563658637 ], [ 73.89253892538926, 34.114883636420046 ], [ 73.885338853388532, 34.084489245562153 ], [ 73.89253892538926, 34.054094854704275 ], [ 73.91773917739178, 34.028766195656033 ], [ 73.946539465394665, 34.010191845687316 ], [ 73.975339753397549, 34.005126113877665 ], [ 74.043740437404381, 34.01863473203673 ], [ 74.065340653406537, 34.01863473203673 ], [ 74.119341193411941, 34.001748959337903 ], [ 74.155341553415553, 34.003437536607791 ], [ 74.191341913419137, 34.011880422957205 ], [ 74.227342273422749, 34.013569000227079 ], [ 74.259742597425969, 33.994994650258377 ], [ 74.270542705427061, 33.96291168213061 ], [ 74.263342633426333, 33.929140136732954 ], [ 74.238142381423813, 33.90043432314495 ], [ 74.212942129421293, 33.878482818636471 ], [ 74.176941769417709, 33.85821989139788 ], [ 74.140941409414097, 33.844711273238815 ], [ 74.032940329403317, 33.827825500539987 ], [ 74.011340113401133, 33.810939727841159 ], [ 73.975339753397549, 33.758593832474801 ], [ 73.971739717397185, 33.746773791585611 ], [ 73.964539645396457, 33.734953750696434 ], [ 73.964539645396457, 33.721445132537383 ], [ 73.960939609396092, 33.692739318949364 ], [ 73.964539645396457, 33.677542123520425 ], [ 73.968139681396821, 33.662344928091485 ], [ 73.975339753397549, 33.64883630993242 ], [ 74.025740257402589, 33.615064764534765 ], [ 74.086940869408693, 33.584670373676872 ], [ 74.140941409414097, 33.549210251009342 ], [ 74.158941589415917, 33.493487201103207 ], [ 74.137341373413733, 33.417501223958496 ], [ 74.104941049410513, 33.344892401353533 ], [ 74.097740977409785, 33.328006628654705 ], [ 74.083340833408357, 33.31449801049564 ], [ 74.072540725407265, 33.302677969606464 ], [ 74.054540545405473, 33.292546505987175 ], [ 74.018540185401861, 33.27903788782811 ], [ 74.000540005400069, 33.270595001478696 ], [ 73.993339933399341, 33.25202065150998 ], [ 73.989739897398977, 33.208117642493036 ], [ 74.000540005400069, 33.177723251635143 ], [ 74.029340293402953, 33.15408316985679 ], [ 74.065340653406537, 33.132131665348311 ], [ 74.097740977409785, 33.105114429030195 ], [ 74.155341553415553, 33.040948492774646 ], [ 74.191341913419137, 33.022374142805944 ], [ 74.284942849428489, 33.008865524646879 ], [ 74.310143101431009, 32.99366832921794 ], [ 74.320943209432102, 32.971716824709461 ], [ 74.324543245432466, 32.921059506612977 ], [ 74.33534335343353, 32.870402188516493 ], [ 74.33534335343353, 32.848450684008029 ], [ 74.324543245432466, 32.829876334039312 ], [ 74.317343173431738, 32.823122024959787 ], [ 74.317343173431738, 32.821433447689898 ], [ 74.306543065430674, 32.809613406800722 ], [ 74.317343173431738, 32.791039056832005 ], [ 74.32814328143283, 32.775841861403066 ], [ 74.346143461434622, 32.767398975053652 ], [ 74.367743677436778, 32.764021820513889 ], [ 74.38574385743857, 32.767398975053652 ], [ 74.418144181441818, 32.78428474775248 ], [ 74.439744397443974, 32.785973325022368 ], [ 74.45414454144543, 32.779219015942829 ], [ 74.482944829448314, 32.753890356894587 ], [ 74.500945009450106, 32.745447470545173 ], [ 74.522545225452262, 32.745447470545173 ], [ 74.572945729457302, 32.752201779624713 ], [ 74.594545945459458, 32.75726751143435 ], [ 74.61254612546125, 32.770776129593415 ], [ 74.623346233462343, 32.785973325022368 ], [ 74.626946269462707, 32.802859097721182 ], [ 74.634146341463435, 32.821433447689898 ], [ 74.652146521465227, 32.836630643118838 ], [ 74.670146701467019, 32.840007797658615 ], [ 74.684546845468475, 32.831564911309201 ], [ 74.688146881468811, 32.809613406800722 ], [ 74.680946809468111, 32.787661902292243 ], [ 74.655746557465591, 32.745447470545173 ], [ 74.648546485464863, 32.723495966036708 ], [ 74.648546485464863, 32.701544461528229 ], [ 74.655746557465591, 32.661018607051048 ], [ 74.655746557465591, 32.640755679812443 ], [ 74.648546485464863, 32.62386990711363 ], [ 74.63774637746377, 32.606984134414802 ], [ 74.630546305463071, 32.588409784446085 ], [ 74.634146341463435, 32.568146857207495 ], [ 74.66294662946629, 32.498915189142309 ], [ 74.688146881468811, 32.471897952824179 ], [ 74.724147241472423, 32.460077911935002 ], [ 74.763747637476371, 32.463455066474765 ], [ 74.799747997479983, 32.471897952824179 ], [ 74.839348393483931, 32.475275107363942 ], [ 74.907749077490791, 32.444880716506063 ], [ 74.947349473494739, 32.448257871045826 ], [ 74.990549905499051, 32.463455066474765 ], [ 75.0229502295023, 32.466832221014528 ], [ 75.055350553505548, 32.455012180125351 ], [ 75.091350913509132, 32.429683521077109 ], [ 75.127351273512744, 32.411109171108407 ], [ 75.195751957519576, 32.397600552949342 ], [ 75.231752317523188, 32.380714780250514 ], [ 75.30015300153002, 32.331746039423919 ], [ 75.325353253532541, 32.313171689455203 ], [ 75.354153541535425, 32.284465875867198 ], [ 75.357753577535789, 32.262514371358719 ], [ 75.346953469534697, 32.242251444120129 ], [ 75.318153181531812, 32.210168475992361 ], [ 75.307353073530749, 32.193282703293534 ], [ 75.296552965529656, 32.159511157895878 ], [ 75.292952929529292, 32.14937969427659 ], [ 75.264152641526437, 32.151068271546464 ], [ 75.24975249752498, 32.14937969427659 ], [ 75.228152281522824, 32.14262538519705 ], [ 75.195751957519576, 32.129116767037999 ], [ 75.17415174151742, 32.110542417069283 ], [ 75.17415174151742, 32.086902335290929 ], [ 75.159751597515992, 32.088590912560804 ], [ 75.138151381513836, 32.093656644370455 ], [ 75.130951309513108, 32.090279489830692 ], [ 75.120151201512016, 32.081836603481278 ], [ 75.109351093510952, 32.078459448941516 ], [ 75.102151021510224, 32.078459448941516 ], [ 75.040950409504092, 32.098722376180106 ], [ 75.0229502295023, 32.095345221640343 ], [ 75.030150301503028, 32.066639408052339 ], [ 75.019350193501936, 32.066639408052339 ], [ 74.994149941499415, 32.066639408052339 ], [ 74.986949869498716, 32.063262253512562 ], [ 74.979749797497988, 32.053130789893274 ], [ 74.972549725497259, 32.04468790354386 ], [ 74.968949689496895, 32.03793359446432 ], [ 74.954549545495468, 32.032867862654683 ], [ 74.932949329493312, 32.029490708114906 ], [ 74.907749077490791, 32.031179285384795 ], [ 74.889748897488971, 32.029490708114906 ], [ 74.871748717487179, 32.010916358146204 ], [ 74.828548285482867, 32.026113553575144 ], [ 74.810548105481075, 32.004162049066679 ], [ 74.803348033480347, 31.968701926399135 ], [ 74.785347853478555, 31.943373267350893 ], [ 74.763747637476371, 31.938307535541242 ], [ 74.698946989469903, 31.950127576430432 ], [ 74.670146701467019, 31.9045359901436 ], [ 74.655746557465591, 31.896093103794186 ], [ 74.641346413464134, 31.891027371984535 ], [ 74.565745657456574, 31.840370053888051 ], [ 74.551345513455146, 31.826861435728986 ], [ 74.540545405454054, 31.811664240300047 ], [ 74.53694536945369, 31.789712735791568 ], [ 74.53694536945369, 31.776204117632503 ], [ 74.533345333453354, 31.771138385822866 ], [ 74.52974529745299, 31.767761231283089 ], [ 74.522545225452262, 31.759318344933675 ], [ 74.522545225452262, 31.754252613124038 ], [ 74.518945189451898, 31.742432572234861 ], [ 74.515345153451534, 31.73736684042521 ], [ 74.51174511745117, 31.735678263155322 ], [ 74.50454504545047, 31.732301108615559 ], [ 74.50454504545047, 31.73061253134567 ], [ 74.493744937449378, 31.713726758646843 ], [ 74.490144901449014, 31.71034960410708 ], [ 74.500945009450106, 31.700218140487792 ], [ 74.55494554945551, 31.61241212245389 ], [ 74.583745837458395, 31.517851795340462 ], [ 74.616146161461614, 31.477325940863267 ], [ 74.616146161461614, 31.458751590894565 ], [ 74.61254612546125, 31.440177240925848 ], [ 74.601746017460187, 31.423291468227021 ], [ 74.583745837458395, 31.406405695528193 ], [ 74.572945729457302, 31.389519922829365 ], [ 74.533345333453354, 31.303402482065351 ], [ 74.526145261452626, 31.279762400286998 ], [ 74.526145261452626, 31.23585939127004 ], [ 74.508145081450834, 31.195333536792859 ], [ 74.508145081450834, 31.175070609554268 ], [ 74.508145081450834, 31.156496259585552 ], [ 74.515345153451534, 31.141299064156613 ], [ 74.522545225452262, 31.129479023267436 ], [ 74.53694536945369, 31.115970405108371 ], [ 74.551345513455146, 31.109216096028845 ], [ 74.598145981459822, 31.115970405108371 ], [ 74.616146161461614, 31.115970405108371 ], [ 74.630546305463071, 31.107527518758957 ], [ 74.648546485464863, 31.092330323330017 ], [ 74.659346593465955, 31.083887436980604 ], [ 74.601746017460187, 31.056870200662473 ], [ 74.580145801458031, 31.043361582503422 ], [ 74.565745657456574, 31.024787232534706 ], [ 74.565745657456574, 31.004524305296115 ], [ 74.547745477454782, 30.992704264406939 ], [ 74.533345333453354, 30.975818491708111 ], [ 74.518945189451898, 30.962309873549046 ], [ 74.500945009450106, 30.957244141739395 ], [ 74.475744757447586, 30.95555556446952 ], [ 74.457744577445794, 30.953866987199632 ], [ 74.443344433444338, 30.945424100850218 ], [ 74.425344253442546, 30.931915482691153 ], [ 74.414544145441454, 30.915029709992325 ], [ 74.407344073440754, 30.901521091833274 ], [ 74.400144001440026, 30.89307820548386 ], [ 74.37854378543787, 30.894766782753734 ], [ 74.35334353343535, 30.901521091833274 ], [ 74.342543425434258, 30.901521091833274 ], [ 74.32814328143283, 30.899832514563386 ], [ 74.320943209432102, 30.89307820548386 ], [ 74.310143101431009, 30.884635319134446 ], [ 74.30294302943031, 30.874503855515144 ], [ 74.310143101431009, 30.855929505546442 ], [ 74.299342993429946, 30.837355155577725 ], [ 74.281342813428154, 30.82384653741866 ], [ 74.259742597425969, 30.818780805609023 ], [ 74.256142561425634, 30.815403651069246 ], [ 74.266942669426697, 30.795140723830656 ], [ 74.266942669426697, 30.78838641475113 ], [ 74.259742597425969, 30.781632105671605 ], [ 74.245342453424541, 30.771500642052303 ], [ 74.234542345423449, 30.764746332972777 ], [ 74.216542165421657, 30.737729096654647 ], [ 74.198541985419865, 30.724220478495582 ], [ 74.191341913419137, 30.717466169416056 ], [ 74.184141841418409, 30.697203242177466 ], [ 74.169741697416981, 30.687071778558163 ], [ 74.166141661416617, 30.678628892208749 ], [ 74.162541625416253, 30.665120274049698 ], [ 74.155341553415553, 30.660054542240047 ], [ 74.133741337413397, 30.654988810430396 ], [ 74.112141121411213, 30.646545924080982 ], [ 74.094140941409421, 30.63641446046168 ], [ 74.083340833408357, 30.626282996842392 ], [ 74.068940689406901, 30.611085801413452 ], [ 74.058140581405837, 30.590822874174847 ], [ 74.058140581405837, 30.573937101476034 ], [ 74.061740617406173, 30.555362751507317 ], [ 74.058140581405837, 30.531722669728964 ], [ 74.043740437404381, 30.518214051569899 ], [ 74.004140041400433, 30.509771165220485 ], [ 73.996939969399705, 30.501328278871071 ], [ 73.989739897398977, 30.487819660712006 ], [ 73.939339393393936, 30.425342301726346 ], [ 73.928539285392873, 30.41858799264682 ], [ 73.91773917739178, 30.416899415376932 ], [ 73.899738997389989, 30.421965147186583 ], [ 73.903339033390353, 30.415210838107058 ], [ 73.903339033390353, 30.401702219947992 ], [ 73.906939069390717, 30.394947910868467 ], [ 73.888938889388896, 30.396636488138341 ], [ 73.86733867338674, 30.388193601788927 ], [ 73.852938529385312, 30.372996406359988 ], [ 73.845738457384584, 30.357799210931034 ], [ 73.84213842138422, 30.352733479121397 ], [ 73.89253892538926, 30.32909339734303 ], [ 73.910539105391052, 30.303764738294788 ], [ 73.935739357393572, 30.261550306547733 ], [ 73.950139501395029, 30.217647297530775 ], [ 73.946539465394665, 30.204138679371709 ], [ 73.942939429394301, 30.18894148394277 ], [ 73.777337773377752, 30.067363920511212 ], [ 73.74133741337414, 30.04878957054251 ], [ 73.557735577355771, 30.013329447874966 ], [ 73.384933849338495, 29.942409202539892 ], [ 73.370533705337067, 29.927212007110953 ], [ 73.327333273332755, 29.805634443679395 ], [ 73.284132841328415, 29.684056880247851 ], [ 73.233732337323374, 29.537150657768052 ], [ 73.17973179731797, 29.444278907924499 ], [ 73.12933129331293, 29.35985004443036 ], [ 73.050130501305034, 29.228141017379514 ], [ 72.988929889298902, 29.153843617504677 ], [ 72.963729637296382, 29.116694917567258 ], [ 72.931329313293134, 29.047463249502073 ], [ 72.916929169291706, 29.032266054073119 ], [ 72.902529025290249, 29.022134590453831 ], [ 72.772927729277313, 28.963034386007934 ], [ 72.657726577265777, 28.910688490641576 ], [ 72.524525245252448, 28.84989970892579 ], [ 72.380523805238056, 28.784045195400367 ], [ 72.355323553235536, 28.767159422701539 ], [ 72.279722797227976, 28.687796291017051 ], [ 72.25812258122582, 28.645581859269981 ], [ 72.196921969219687, 28.44464116415395 ], [ 72.178921789217895, 28.397361000597229 ], [ 72.150121501215011, 28.353457991580285 ], [ 72.110521105211063, 28.317997868912741 ], [ 71.988119881198827, 28.228503273608965 ], [ 71.908919089190903, 28.135631523765412 ], [ 71.89811898118981, 28.115368596526821 ], [ 71.890918909189111, 28.096794246558105 ], [ 71.880118801188019, 27.975216683126547 ], [ 71.87291872918729, 27.960019487697608 ], [ 71.862118621186227, 27.949888024078319 ], [ 71.700117001170014, 27.905985015061361 ], [ 71.559715597155986, 27.868836315123943 ], [ 71.476914769147697, 27.862082006044417 ], [ 71.397713977139773, 27.868836315123943 ], [ 71.311313113131149, 27.862082006044417 ], [ 71.224912249122497, 27.84519623334559 ], [ 71.149311493114936, 27.823244728837111 ], [ 71.0269102691027, 27.767521678930976 ], [ 70.915309153091528, 27.718552938104381 ], [ 70.832508325083268, 27.701667165405553 ], [ 70.760507605076072, 27.710110051754967 ], [ 70.710107101071031, 27.74050444261286 ], [ 70.670506705067055, 27.791161760709343 ], [ 70.641706417064171, 27.855327696964878 ], [ 70.638106381063807, 27.873902046933594 ], [ 70.641706417064171, 27.911050746871013 ], [ 70.634506345063471, 27.931313674109603 ], [ 70.620106201062015, 27.944822292268668 ], [ 70.591305913059131, 27.965085219507259 ], [ 70.558905589055911, 27.998856764904914 ], [ 70.533705337053391, 28.015742537603742 ], [ 70.508505085050871, 28.029251155762793 ], [ 70.476104761047623, 28.037694042112207 ], [ 70.454504545045467, 28.039382619382096 ], [ 70.436504365043646, 28.036005464842333 ], [ 70.396903969039698, 28.020808269413394 ], [ 70.360903609036086, 28.015742537603742 ], [ 70.342903429034294, 28.010676805794091 ], [ 70.324903249032502, 28.000545342174789 ], [ 70.267302673026734, 27.944822292268668 ], [ 70.198901989019902, 27.90091928325171 ], [ 70.18810188101881, 27.892476396902296 ], [ 70.101701017010186, 27.811424687947934 ], [ 70.090900909009093, 27.792850337979218 ], [ 70.015300153001533, 27.6003525292126 ], [ 69.993699936999377, 27.571646715624595 ], [ 69.907299072990725, 27.497349315749744 ], [ 69.849698496984985, 27.409543297715857 ], [ 69.730897308973113, 27.309917238792764 ], [ 69.666096660966616, 27.269391384315583 ], [ 69.576095760957628, 27.18833967536122 ], [ 69.532895328953288, 27.12586231637556 ], [ 69.507695076950768, 27.049876339230835 ], [ 69.498955128619031, 27.0 ] ] } }
]
}
